SAOCOM 1A
1 43641U 18076A   25312.84915059  .00000792  00000+0  10606-3 0  9997
2 43641  97.8868 137.7623 0001349  91.4277 268.7091 14.82154700383461